,PostalCode,Borough,Neighbourhood,Latitude,Longitude,Cluster Labels,1st Most Common Venue,2nd Most Common Venue,3rd Most Common Venue,4th Most Common Venue,5th Most Common Venue,6th Most Common Venue,7th Most Common Venue,8th Most Common Venue,9th Most Common Venue,10th Most Common Venue
0,M1B,Scarborough,"Rouge, Malvern",43.806686299999996,-79.19435340000001,1,Fast Food Restaurant,Dumpling Restaurant,Diner,Discount Store,Dog Run,Doner Restaurant,Donut Shop,Drugstore,Eastern European Restaurant,Women's Store
1,M1C,Scarborough,"Highland Creek, Rouge Hill, Port Union",43.7845351,-79.16049709999999,0,Bar,Yoga Studio,Dumpling Restaurant,Discount Store,Dog Run,Doner Restaurant,Donut Shop,Drugstore,Eastern European Restaurant,Festival
2,M1E,Scarborough,"Guildwood, Morningside, West Hill",43.7635726,-79.1887115,0,Pizza Place,Intersection,Electronics Store,Breakfast Spot,Medical Center,Rental Car Location,Mexican Restaurant,Yoga Studio,Doner Restaurant,Discount Store
3,M1G,Scarborough,Woburn,43.7709921,-79.21691740000001,0,Coffee Shop,Korean Restaurant,Eastern European Restaurant,Discount Store,Dog Run,Doner Restaurant,Donut Shop,Drugstore,Dumpling Restaurant,Yoga Studio
4,M1H,Scarborough,Cedarbrae,43.773136,-79.23947609999999,0,Bakery,Bank,Hakka Restaurant,Fried Chicken Joint,Thai Restaurant,Athletics & Sports,Caribbean Restaurant,Donut Shop,Discount Store,Dog Run
5,M1J,Scarborough,Scarborough Village,43.7447342,-79.23947609999999,0,Business Service,Playground,Drugstore,Dim Sum Restaurant,Diner,Discount Store,Dog Run,Doner Restaurant,Donut Shop,Yoga Studio
6,M1K,Scarborough,"East Birchmount Park, Ionview, Kennedy Park",43.7279292,-79.26202940000002,0,Department Store,Discount Store,Coffee Shop,Hobby Shop,Dumpling Restaurant,Diner,Dog Run,Doner Restaurant,Donut Shop,Drugstore
7,M1L,Scarborough,"Clairlea, Golden Mile, Oakridge",43.711111700000004,-79.2845772,0,Bus Line,Bakery,Fast Food Restaurant,Intersection,Bus Station,Soccer Field,Park,Convenience Store,Cosmetics Shop,Falafel Restaurant
8,M1M,Scarborough,"Cliffcrest, Cliffside, Scarborough Village West",43.716316,-79.23947609999999,0,Motel,American Restaurant,Diner,Discount Store,Dog Run,Doner Restaurant,Donut Shop,Drugstore,Yoga Studio,Dim Sum Restaurant
9,M1N,Scarborough,"Birch Cliff, Cliffside West",43.692657000000004,-79.2648481,0,College Stadium,General Entertainment,Skating Rink,Café,Comic Shop,Dim Sum Restaurant,Event Space,Ethiopian Restaurant,Empanada Restaurant,Electronics Store
10,M1P,Scarborough,"Dorset Park, Scarborough Town Centre, Wexford Heights",43.7574096,-79.27330400000001,0,Indian Restaurant,Latin American Restaurant,Furniture / Home Store,Chinese Restaurant,Vietnamese Restaurant,Pet Store,Empanada Restaurant,Electronics Store,Eastern European Restaurant,Dumpling Restaurant
11,M1R,Scarborough,"Maryvale, Wexford",43.750071500000004,-79.2958491,0,Middle Eastern Restaurant,Auto Garage,Breakfast Spot,Vietnamese Restaurant,Shopping Mall,Sandwich Place,Yoga Studio,Donut Shop,Discount Store,Dog Run
12,M1S,Scarborough,Agincourt,43.7942003,-79.26202940000002,0,Lounge,Breakfast Spot,Skating Rink,Clothing Store,Dumpling Restaurant,Discount Store,Dog Run,Doner Restaurant,Donut Shop,Drugstore
13,M1T,Scarborough,"Clarks Corners, Sullivan, Tam O'Shanter",43.7816375,-79.3043021,0,Pizza Place,Fried Chicken Joint,Chinese Restaurant,Italian Restaurant,Thai Restaurant,Noodle House,Fast Food Restaurant,Breakfast Spot,Pharmacy,Bank
14,M1V,Scarborough,"Agincourt North, L'Amoreaux East, Milliken, Steeles East",43.8152522,-79.2845772,4,Playground,Park,Yoga Studio,Drugstore,Dim Sum Restaurant,Diner,Discount Store,Dog Run,Doner Restaurant,Donut Shop
15,M1W,Scarborough,L'Amoreaux West,43.799525200000005,-79.3183887,0,Fast Food Restaurant,Chinese Restaurant,Pharmacy,Coffee Shop,Breakfast Spot,Sandwich Place,Noodle House,Indian Restaurant,Grocery Store,Convenience Store
16,M1X,Scarborough,Upper Rouge,43.836124700000006,-79.20563609999999,0,,,,,,,,,,
17,M2H,North York,Hillcrest Village,43.8037622,-79.3634517,0,Dog Run,Golf Course,Pool,Mediterranean Restaurant,Yoga Studio,Drugstore,Diner,Discount Store,Doner Restaurant,Donut Shop
18,M2J,North York,"Fairview, Henry Farm, Oriole",43.7785175,-79.3465557,0,Clothing Store,Coffee Shop,Fast Food Restaurant,Women's Store,Japanese Restaurant,Food Court,Asian Restaurant,Toy / Game Store,Bakery,Shopping Mall
19,M2K,North York,Bayview Village,43.7869473,-79.385975,0,Café,Bank,Japanese Restaurant,Chinese Restaurant,Dim Sum Restaurant,Discount Store,Dog Run,Doner Restaurant,Donut Shop,Drugstore
20,M2L,North York,"Silver Hills, York Mills",43.7574902,-79.37471409999999,0,,,,,,,,,,
21,M2M,North York,"Newtonbrook, Willowdale",43.789053,-79.40849279999999,2,Gym,Yoga Studio,Dumpling Restaurant,Diner,Discount Store,Dog Run,Doner Restaurant,Donut Shop,Drugstore,Eastern European Restaurant
22,M2N,North York,Willowdale South,43.7701199,-79.40849279999999,0,Ramen Restaurant,Coffee Shop,Café,Sandwich Place,Pizza Place,Juice Bar,Indonesian Restaurant,Sushi Restaurant,Ice Cream Shop,Steakhouse
23,M2P,North York,York Mills West,43.752758299999996,-79.4000493,4,Park,Bank,Convenience Store,Yoga Studio,Dumpling Restaurant,Discount Store,Dog Run,Doner Restaurant,Donut Shop,Drugstore
24,M2R,North York,Willowdale West,43.7827364,-79.4422593,0,Pizza Place,Coffee Shop,Butcher,Pharmacy,Grocery Store,Comfort Food Restaurant,Dessert Shop,Event Space,Ethiopian Restaurant,Empanada Restaurant
25,M3A,North York,Parkwoods,43.7532586,-79.3296565,4,Park,Food & Drink Shop,Yoga Studio,Drugstore,Diner,Discount Store,Dog Run,Doner Restaurant,Donut Shop,Dumpling Restaurant
26,M3B,North York,Don Mills North,43.745905799999996,-79.352188,0,Gym / Fitness Center,Caribbean Restaurant,Japanese Restaurant,Café,Concert Hall,Diner,Falafel Restaurant,Event Space,Ethiopian Restaurant,Empanada Restaurant
27,M3C,North York,"Flemingdon Park, Don Mills South",43.72589970000001,-79.340923,0,Asian Restaurant,Beer Store,Gym,Coffee Shop,Grocery Store,Fast Food Restaurant,Bike Shop,Sporting Goods Shop,Sandwich Place,Japanese Restaurant
28,M3H,North York,"Bathurst Manor, Downsview North, Wilson Heights",43.7543283,-79.4422593,0,Coffee Shop,Pharmacy,Sandwich Place,Sushi Restaurant,Bank,Deli / Bodega,Restaurant,Fried Chicken Joint,Frozen Yogurt Shop,Diner
29,M3J,North York,"Northwood Park, York University",43.7679803,-79.48726190000001,0,Falafel Restaurant,Massage Studio,Coffee Shop,Bar,Caribbean Restaurant,Yoga Studio,Drugstore,Dog Run,Doner Restaurant,Donut Shop
30,M3K,North York,"CFB Toronto, Downsview East",43.737473200000004,-79.46476329999999,4,Airport,Snack Place,Park,Yoga Studio,Dumpling Restaurant,Discount Store,Dog Run,Doner Restaurant,Donut Shop,Drugstore
31,M3L,North York,Downsview West,43.7390146,-79.5069436,0,Grocery Store,Bank,Park,Hotel,Shopping Mall,Yoga Studio,Drugstore,Discount Store,Dog Run,Doner Restaurant
32,M3M,North York,Downsview Central,43.7284964,-79.49569740000001,0,Business Service,Baseball Field,Food Truck,Drugstore,Discount Store,Dog Run,Doner Restaurant,Donut Shop,Yoga Studio,Diner
33,M3N,North York,Downsview Northwest,43.7616313,-79.52099940000001,0,Gym / Fitness Center,Grocery Store,Liquor Store,Discount Store,Dumpling Restaurant,Diner,Dog Run,Doner Restaurant,Donut Shop,Drugstore
34,M4A,North York,Victoria Village,43.725882299999995,-79.31557159999998,0,Intersection,Pizza Place,French Restaurant,Coffee Shop,Portuguese Restaurant,Hockey Arena,Donut Shop,Dim Sum Restaurant,Diner,Discount Store
35,M4B,East York,"Woodbine Gardens, Parkview Hill",43.7063972,-79.309937,0,Pizza Place,Fast Food Restaurant,Gastropub,Gym / Fitness Center,Café,Bank,Intersection,Athletics & Sports,Pharmacy,General Travel
36,M4C,East York,Woodbine Heights,43.695343900000005,-79.3183887,0,Skating Rink,Cosmetics Shop,Dance Studio,Curling Ice,Beer Store,Video Store,Bus Stop,Spa,Park,Pharmacy
37,M4E,East Toronto,The Beaches,43.67635739999999,-79.2930312,0,Park,Other Great Outdoors,Health Food Store,Neighborhood,Trail,Pub,Yoga Studio,Donut Shop,Dim Sum Restaurant,Diner
38,M4G,East York,Leaside,43.7090604,-79.3634517,0,Coffee Shop,Sporting Goods Shop,Burger Joint,Furniture / Home Store,Pet Store,Beer Store,Electronics Store,Supermarket,Record Shop,Fish & Chips Shop
39,M4H,East York,Thorncliffe Park,43.7053689,-79.34937190000001,0,Indian Restaurant,Burger Joint,Yoga Studio,Bank,Gym,Intersection,Discount Store,Park,Pizza Place,Coffee Shop
40,M4J,East York,East Toronto,43.685347,-79.3381065,4,Park,Coffee Shop,Convenience Store,Yoga Studio,Dumpling Restaurant,Discount Store,Dog Run,Doner Restaurant,Donut Shop,Drugstore
41,M4K,East Toronto,"The Danforth West, Riverdale",43.6795571,-79.352188,0,Greek Restaurant,Coffee Shop,Ice Cream Shop,Italian Restaurant,Furniture / Home Store,Pizza Place,Spa,Bookstore,Brewery,Bubble Tea Shop
42,M4L,East Toronto,"The Beaches West, India Bazaar",43.6689985,-79.31557159999998,0,Sandwich Place,Pizza Place,Pet Store,Pub,Liquor Store,Light Rail Station,Burger Joint,Burrito Place,Fast Food Restaurant,Italian Restaurant
43,M4M,East Toronto,Studio District,43.6595255,-79.340923,0,Café,Coffee Shop,Italian Restaurant,American Restaurant,Bakery,Yoga Studio,Diner,Bar,Chinese Restaurant,Ice Cream Shop
44,M4N,Central Toronto,Lawrence Park,43.7280205,-79.3887901,0,Photography Studio,Bus Line,Park,Swim School,Doner Restaurant,Dim Sum Restaurant,Diner,Discount Store,Dog Run,Donut Shop
45,M4P,Central Toronto,Davisville North,43.7127511,-79.3901975,0,Gym,Sandwich Place,Park,Breakfast Spot,Clothing Store,Food & Drink Shop,Hotel,Donut Shop,Discount Store,Dog Run
46,M4R,Central Toronto,North Toronto West,43.7153834,-79.40567840000001,0,Sporting Goods Shop,Coffee Shop,Yoga Studio,Chinese Restaurant,Burger Joint,Spa,Diner,Salon / Barbershop,Mexican Restaurant,Dessert Shop
47,M4S,Central Toronto,Davisville,43.7043244,-79.3887901,0,Dessert Shop,Sandwich Place,Café,Gym,Italian Restaurant,Sushi Restaurant,Coffee Shop,Pizza Place,Thai Restaurant,Indian Restaurant
48,M4T,Central Toronto,"Moore Park, Summerhill East",43.6895743,-79.38315990000001,4,Playground,Park,Restaurant,Yoga Studio,Donut Shop,Dim Sum Restaurant,Diner,Discount Store,Dog Run,Doner Restaurant
49,M4V,Central Toronto,"Deer Park, Forest Hill SE, Rathnelly, South Hill, Summerhill West",43.68641229999999,-79.4000493,0,Coffee Shop,Pub,Light Rail Station,American Restaurant,Supermarket,Bagel Shop,Liquor Store,Fried Chicken Joint,Sports Bar,Restaurant
50,M4W,Downtown Toronto,Rosedale,43.6795626,-79.37752940000001,4,Park,Trail,Playground,Building,Yoga Studio,Dim Sum Restaurant,Diner,Discount Store,Dog Run,Doner Restaurant
51,M4X,Downtown Toronto,"Cabbagetown, St. James Town",43.667967,-79.3676753,0,Coffee Shop,Restaurant,Café,Bakery,Park,Pizza Place,Pub,Italian Restaurant,Jewelry Store,Caribbean Restaurant
52,M4Y,Downtown Toronto,Church and Wellesley,43.6658599,-79.38315990000001,0,Coffee Shop,Sushi Restaurant,Japanese Restaurant,Restaurant,Gay Bar,Mediterranean Restaurant,Café,Hotel,Gym,Pub
53,M5A,Downtown Toronto,"Harbourfront, Regent Park",43.6542599,-79.3606359,0,Coffee Shop,Bakery,Park,Café,Mexican Restaurant,Theater,Breakfast Spot,Restaurant,Pub,Beer Store
54,M5B,Downtown Toronto,"Ryerson, Garden District",43.6571618,-79.37893709999999,0,Coffee Shop,Clothing Store,Cosmetics Shop,Fast Food Restaurant,Café,Ramen Restaurant,Pizza Place,Sporting Goods Shop,Bakery,Italian Restaurant
55,M5C,Downtown Toronto,St. James Town,43.6514939,-79.3754179,0,Café,Coffee Shop,Hotel,Italian Restaurant,Restaurant,Gastropub,Clothing Store,Beer Bar,Breakfast Spot,Cocktail Bar
56,M5E,Downtown Toronto,Berczy Park,43.644770799999996,-79.3733064,0,Coffee Shop,Cocktail Bar,Cheese Shop,Steakhouse,Beer Bar,Seafood Restaurant,Bakery,Café,Farmers Market,Irish Pub
57,M5G,Downtown Toronto,Central Bay Street,43.6579524,-79.3873826,0,Coffee Shop,Café,Italian Restaurant,Burger Joint,Ice Cream Shop,Sandwich Place,Fried Chicken Joint,Bar,Bubble Tea Shop,Gym / Fitness Center
58,M5H,Downtown Toronto,"Adelaide, King, Richmond",43.65057120000001,-79.3845675,0,Coffee Shop,Café,Thai Restaurant,Bar,Steakhouse,American Restaurant,Hotel,Restaurant,Burger Joint,Asian Restaurant
59,M5J,Downtown Toronto,"Harbourfront East, Toronto Islands, Union Station",43.6408157,-79.38175229999999,0,Coffee Shop,Hotel,Aquarium,Café,Brewery,Scenic Lookout,Fried Chicken Joint,Italian Restaurant,History Museum,Music Venue
60,M5K,Downtown Toronto,"Design Exchange, Toronto Dominion Centre",43.6471768,-79.38157640000001,0,Coffee Shop,Café,Hotel,Restaurant,Italian Restaurant,Gastropub,Bar,Deli / Bodega,American Restaurant,Salad Place
61,M5L,Downtown Toronto,"Commerce Court, Victoria Hotel",43.6481985,-79.37981690000001,0,Coffee Shop,Hotel,Café,Restaurant,American Restaurant,Italian Restaurant,Gym,Steakhouse,Seafood Restaurant,Deli / Bodega
62,M5M,North York,"Bedford Park, Lawrence Manor East",43.7332825,-79.4197497,0,Coffee Shop,Italian Restaurant,Sushi Restaurant,Comfort Food Restaurant,Thai Restaurant,Sandwich Place,Juice Bar,Fast Food Restaurant,Spa,Japanese Restaurant
63,M5N,Central Toronto,Roselawn,43.7116948,-79.41693559999999,0,Garden,Home Service,Yoga Studio,Drugstore,Diner,Discount Store,Dog Run,Doner Restaurant,Donut Shop,Dumpling Restaurant
64,M5P,Central Toronto,"Forest Hill North, Forest Hill West",43.6969476,-79.41130720000001,0,Jewelry Store,Park,Sushi Restaurant,Trail,Drugstore,Diner,Discount Store,Dog Run,Doner Restaurant,Donut Shop
65,M5R,Central Toronto,"The Annex, North Midtown, Yorkville",43.6727097,-79.40567840000001,0,Café,Sandwich Place,Pizza Place,Coffee Shop,Pharmacy,BBQ Joint,Cosmetics Shop,Pub,Burger Joint,Liquor Store
66,M5S,Downtown Toronto,"Harbord, University of Toronto",43.6626956,-79.4000493,0,Café,Bookstore,Bar,Italian Restaurant,Theater,Japanese Restaurant,Sandwich Place,Bakery,Restaurant,Dessert Shop
67,M5T,Downtown Toronto,"Chinatown, Grange Park, Kensington Market",43.6532057,-79.4000493,0,Café,Vegetarian / Vegan Restaurant,Chinese Restaurant,Bar,Bakery,Vietnamese Restaurant,Mexican Restaurant,Coffee Shop,Dumpling Restaurant,Comfort Food Restaurant
68,M5V,Downtown Toronto,"CN Tower, Bathurst Quay, Island airport, Harbourfront West, King and Spadina, Railway Lands, South Niagara",43.6289467,-79.3944199,0,Airport Service,Airport Terminal,Airport Lounge,Harbor / Marina,Sculpture Garden,Coffee Shop,Boutique,Boat or Ferry,Airport Gate,Airport Food Court
69,M5W,Downtown Toronto,Stn A PO Boxes 25 The Esplanade,43.6464352,-79.37484599999999,0,Coffee Shop,Café,Restaurant,Beer Bar,Seafood Restaurant,Fast Food Restaurant,Cocktail Bar,Italian Restaurant,Hotel,Gym
70,M5X,Downtown Toronto,"First Canadian Place, Underground city",43.6484292,-79.3822802,0,Coffee Shop,Café,Hotel,Restaurant,Steakhouse,Gastropub,American Restaurant,Burger Joint,Deli / Bodega,Bar
71,M6A,North York,"Lawrence Heights, Lawrence Manor",43.718517999999996,-79.46476329999999,0,Accessories Store,Arts & Crafts Store,Gift Shop,Furniture / Home Store,Miscellaneous Shop,Coffee Shop,Clothing Store,Boutique,Women's Store,Vietnamese Restaurant
72,M6B,North York,Glencairn,43.709577,-79.44507259999999,0,Pub,Park,Asian Restaurant,Japanese Restaurant,Drugstore,Diner,Discount Store,Dog Run,Doner Restaurant,Donut Shop
73,M6C,York,Humewood-Cedarvale,43.6937813,-79.42819140000002,0,Field,Trail,Hockey Arena,Drugstore,Diner,Discount Store,Dog Run,Doner Restaurant,Donut Shop,Dumpling Restaurant
74,M6E,York,Caledonia-Fairbanks,43.6890256,-79.453512,4,Park,Women's Store,Market,Fast Food Restaurant,Greek Restaurant,Gourmet Shop,Event Space,Ethiopian Restaurant,Empanada Restaurant,Electronics Store
75,M6G,Downtown Toronto,Christie,43.669542,-79.4225637,0,Grocery Store,Café,Park,Nightclub,Restaurant,Diner,Baby Store,Italian Restaurant,Bank,Coffee Shop
76,M6H,West Toronto,"Dovercourt Village, Dufferin",43.66900510000001,-79.4422593,0,Pharmacy,Supermarket,Bakery,Playground,Bar,Café,Middle Eastern Restaurant,Music Venue,Bank,Park
77,M6J,West Toronto,"Little Portugal, Trinity",43.647926700000006,-79.4197497,0,Bar,Coffee Shop,Men's Store,Asian Restaurant,Café,Pizza Place,French Restaurant,Restaurant,Vietnamese Restaurant,New American Restaurant
78,M6K,West Toronto,"Brockton, Exhibition Place, Parkdale Village",43.6368472,-79.42819140000002,0,Breakfast Spot,Café,Coffee Shop,Climbing Gym,Burrito Place,Stadium,Italian Restaurant,Restaurant,Intersection,Bar
79,M6L,North York,"Downsview, North Park, Upwood Park",43.713756200000006,-79.4900738,0,Bakery,Park,Construction & Landscaping,Basketball Court,Yoga Studio,Dumpling Restaurant,Dog Run,Doner Restaurant,Donut Shop,Drugstore
80,M6M,York,"Del Ray, Keelesdale, Mount Dennis, Silverthorn",43.6911158,-79.47601329999999,0,Fast Food Restaurant,Fried Chicken Joint,Sandwich Place,Restaurant,Dessert Shop,Diner,Discount Store,Dog Run,Doner Restaurant,Donut Shop
81,M6N,York,"The Junction North, Runnymede",43.67318529999999,-79.48726190000001,0,Caribbean Restaurant,Bus Line,Brewery,Yoga Studio,Dumpling Restaurant,Dog Run,Doner Restaurant,Donut Shop,Drugstore,Eastern European Restaurant
82,M6P,West Toronto,"High Park, The Junction South",43.6616083,-79.46476329999999,0,Mexican Restaurant,Café,Thai Restaurant,Fast Food Restaurant,Bookstore,Park,Speakeasy,Flea Market,Furniture / Home Store,Italian Restaurant
83,M6R,West Toronto,"Parkdale, Roncesvalles",43.6489597,-79.456325,0,Breakfast Spot,Gift Shop,Eastern European Restaurant,Cuban Restaurant,Italian Restaurant,Dog Run,Dessert Shop,Restaurant,Movie Theater,Bank
84,M6S,West Toronto,"Runnymede, Swansea",43.6515706,-79.4844499,0,Sushi Restaurant,Café,Coffee Shop,Italian Restaurant,Diner,Indie Movie Theater,Bar,Dessert Shop,Fish & Chips Shop,Smoothie Shop
85,M7A,Queen's Park,Queen's Park,43.6623015,-79.3894938,0,Coffee Shop,Park,Gym,Smoothie Shop,Seafood Restaurant,Sandwich Place,Burger Joint,Burrito Place,Café,Portuguese Restaurant
86,M7R,Mississauga,Canada Post Gateway Processing Centre,43.6369656,-79.61581899999999,0,Coffee Shop,Hotel,Gym / Fitness Center,Sandwich Place,Mediterranean Restaurant,American Restaurant,Fried Chicken Joint,Burrito Place,Yoga Studio,Donut Shop
87,M7Y,East Toronto,Business Reply Mail Processing Centre 969 Eastern,43.6627439,-79.321558,0,Yoga Studio,Garden,Comic Shop,Pizza Place,Recording Studio,Restaurant,Burrito Place,Skate Park,Brewery,Farmers Market
88,M8V,Etobicoke,"Humber Bay Shores, Mimico South, New Toronto",43.6056466,-79.50132070000001,0,Café,Pharmacy,Bakery,Fried Chicken Joint,Flower Shop,Fast Food Restaurant,Liquor Store,Pet Store,Pizza Place,Coffee Shop
89,M8W,Etobicoke,"Alderwood, Long Branch",43.60241370000001,-79.54348409999999,0,Pizza Place,Coffee Shop,Dance Studio,Pharmacy,Gym,Skating Rink,Sandwich Place,Pool,Athletics & Sports,Pub
90,M8X,Etobicoke,"The Kingsway, Montgomery Road, Old Mill North",43.653653600000005,-79.5069436,0,Park,River,Smoke Shop,Pool,Yoga Studio,Donut Shop,Dim Sum Restaurant,Diner,Discount Store,Dog Run
91,M8Y,Etobicoke,"Humber Bay, King's Mill Park, Kingsway Park South East, Mimico NE, Old Mill South, The Queensway East, Royal York South East, Sunnylea",43.6362579,-79.49850909999999,3,Baseball Field,Yoga Studio,Dumpling Restaurant,Discount Store,Dog Run,Doner Restaurant,Donut Shop,Drugstore,Eastern European Restaurant,Festival
92,M8Z,Etobicoke,"Kingsway Park South West, Mimico NW, The Queensway West, Royal York South West, South of Bloor",43.6288408,-79.52099940000001,0,Gym,Social Club,Discount Store,Tanning Salon,Burrito Place,Burger Joint,Flower Shop,Sandwich Place,Thrift / Vintage Store,Bakery
93,M9A,Etobicoke,Islington Avenue,43.6678556,-79.53224240000002,0,,,,,,,,,,
94,M9B,Etobicoke,"Cloverdale, Islington, Martin Grove, Princess Gardens, West Deane Park",43.6509432,-79.55472440000001,0,,,,,,,,,,
95,M9C,Etobicoke,"Bloordale Gardens, Eringate, Markland Wood, Old Burnhamthorpe",43.6435152,-79.57720079999999,0,Convenience Store,Pharmacy,Park,Pizza Place,Liquor Store,Café,Coffee Shop,Beer Store,Shopping Plaza,Drugstore
96,M9L,North York,Humber Summit,43.7563033,-79.56596329999999,0,Empanada Restaurant,Yoga Studio,Dumpling Restaurant,Diner,Discount Store,Dog Run,Doner Restaurant,Donut Shop,Drugstore,Eastern European Restaurant
97,M9M,North York,"Emery, Humberlea",43.7247659,-79.53224240000002,3,Baseball Field,Furniture / Home Store,Yoga Studio,Dumpling Restaurant,Discount Store,Dog Run,Doner Restaurant,Donut Shop,Drugstore,Eastern European Restaurant
98,M9N,York,Weston,43.706876,-79.51818840000001,4,Park,Yoga Studio,Dumpling Restaurant,Diner,Discount Store,Dog Run,Doner Restaurant,Donut Shop,Drugstore,Eastern European Restaurant
99,M9P,Etobicoke,Westmount,43.696319,-79.53224240000002,0,Pizza Place,Middle Eastern Restaurant,Sandwich Place,Discount Store,Coffee Shop,Chinese Restaurant,Diner,Dog Run,Doner Restaurant,Donut Shop
100,M9R,Etobicoke,"Kingsview Village, Martin Grove Gardens, Richview Gardens, St. Phillips",43.6889054,-79.55472440000001,4,Pizza Place,Mobile Phone Shop,Park,Drugstore,Diner,Discount Store,Dog Run,Doner Restaurant,Donut Shop,Dumpling Restaurant
101,M9V,Etobicoke,"Albion Gardens, Beaumond Heights, Humbergate, Jamestown, Mount Olive, Silverstone, South Steeles, Thistletown",43.739416399999996,-79.5884369,0,Grocery Store,Liquor Store,Fried Chicken Joint,Pizza Place,Sandwich Place,Fast Food Restaurant,Beer Store,Pharmacy,German Restaurant,Dance Studio
102,M9W,Etobicoke,Northwest,43.706748299999994,-79.5940544,0,Drugstore,Rental Car Location,Bar,Dessert Shop,Diner,Discount Store,Dog Run,Doner Restaurant,Donut Shop,Yoga Studio
